{"fetched_at":"2026-04-04T02:03:33Z","count":15623,"tles":[{"name":"STARLINK-37223","line1":"1 68387U 26063H   26092.75002315 -.01764094  92813-3 -37321-2 0  9998","line2":"2 68387  97.2826 233.5458 0001558  72.4191  86.1565 15.98921873  2322","category":"Starlink"}]}